{
  "type": "FeatureCollection",
  "features": [
    {
      "type": "Feature",
      "properties": {
        "norad_id": 34765,
        "name": "IRIDIUM 33 DEB",
        "group": "iridium-33-debris",
        "lat": 77.92876688886594,
        "lon": -169.2415600085635,
        "alt_km": 746.3594445283225,
        "timestamp": "2025-12-23T09:49:07.468229+00:00",
        "meta_object_name": "IRIDIUM 33 DEB",
        "meta_object_id": "1997-051LJ",
        "meta_epoch": "2025-12-21T13:03:17.424288",
        "meta_mean_motion": 14.40485449,
        "meta_eccentricity": 0.0016466,
        "meta_inclination": 86.3382,
        "meta_ra_of_asc_node": 28.9833,
        "meta_arg_of_pericenter": 181.3076,
        "meta_mean_anomaly": 334.2319,
        "meta_ephemeris_type": 0,
        "meta_classification_type": "U",
        "meta_norad_cat_id": 34765,
        "meta_element_set_no": 999,
        "meta_rev_at_epoch": 87740,
        "meta_bstar": 0.00029938,
        "meta_mean_motion_dot": 9.73e-06,
        "meta_mean_motion_ddot": 0,
        "tle_line1": "1 34765U 97051LJ  25355.54395167  .00000973  00000+0  29938-3 0  9999",
        "tle_line2": "2 34765  86.3382  28.9833 0016466 181.3076 334.2319 14.40485449877403"
      },
      "geometry": {
        "type": "Point",
        "coordinates": [
          -169.2415600085635,
          77.92876688886594
        ]
      }
    },
    {
      "type": "Feature",
      "properties": {
        "norad_id": 34833,
        "name": "IRIDIUM 33 DEB",
        "group": "iridium-33-debris",
        "lat": -55.43063717992506,
        "lon": 41.143257306610906,
        "alt_km": 732.6319374879076,
        "timestamp": "2025-12-23T09:49:07.468239+00:00",
        "meta_object_name": "IRIDIUM 33 DEB",
        "meta_object_id": "1997-051MH",
        "meta_epoch": "2025-12-21T03:45:30.832704",
        "meta_mean_motion": 14.52421073,
        "meta_eccentricity": 0.00214678,
        "meta_inclination": 86.3927,
        "meta_ra_of_asc_node": 47.3667,
        "meta_arg_of_pericenter": 72.8031,
        "meta_mean_anomaly": 341.7014,
        "meta_ephemeris_type": 0,
        "meta_classification_type": "U",
        "meta_norad_cat_id": 34833,
        "meta_element_set_no": 999,
        "meta_rev_at_epoch": 87837,
        "meta_bstar": 0.00044712979,
        "meta_mean_motion_dot": 1.848e-05,
        "meta_mean_motion_ddot": 0,
        "tle_line1": "1 34833U 97051MH  25355.15660686  .00001848  00000+0  44713-3 0  9993",
        "tle_line2": "2 34833  86.3927  47.3667 0021467  72.8031 341.7014 14.52421073878374"
      },
      "geometry": {
        "type": "Point",
        "coordinates": [
          41.143257306610906,
          -55.43063717992506
        ]
      }
    },
    {
      "type": "Feature",
      "properties": {
        "norad_id": 34870,
        "name": "IRIDIUM 33 DEB",
        "group": "iridium-33-debris",
        "lat": 57.8846835390933,
        "lon": 123.29774732220656,
        "alt_km": 623.0554598306226,
        "timestamp": "2025-12-23T09:49:07.468249+00:00",
        "meta_object_name": "IRIDIUM 33 DEB",
        "meta_object_id": "1997-051MQ",
        "meta_epoch": "2025-12-22T20:23:31.246080",
        "meta_mean_motion": 14.76611259,
        "meta_eccentricity": 0.00177501,
        "meta_inclination": 86.3115,
        "meta_ra_of_asc_node": 309.4529,
        "meta_arg_of_pericenter": 146.7714,
        "meta_mean_anomaly": 243.206,
        "meta_ephemeris_type": 0,
        "meta_classification_type": "U",
        "meta_norad_cat_id": 34870,
        "meta_element_set_no": 999,
        "meta_rev_at_epoch": 89060,
        "meta_bstar": 0.0014600541,
        "meta_mean_motion_dot": 0.0001025,
        "meta_mean_motion_ddot": 0,
        "tle_line1": "1 34870U 97051MQ  25356.84966720  .00010250  00000+0  14601-2 0  9998",
        "tle_line2": "2 34870  86.3115 309.4529 0017750 146.7714 243.2060 14.76611259890602"
      },
      "geometry": {
        "type": "Point",
        "coordinates": [
          123.29774732220656,
          57.8846835390933
        ]
      }
    },
    {
      "type": "Feature",
      "properties": {
        "norad_id": 34896,
        "name": "IRIDIUM 33 DEB",
        "group": "iridium-33-debris",
        "lat": -67.73509656128748,
        "lon": -47.12102631243745,
        "alt_km": 687.769790338527,
        "timestamp": "2025-12-23T09:49:07.468259+00:00",
        "meta_object_name": "IRIDIUM 33 DEB",
        "meta_object_id": "1997-051MY",
        "meta_epoch": "2025-12-22T04:42:04.437216",
        "meta_mean_motion": 14.66361603,
        "meta_eccentricity": 0.00254644,
        "meta_inclination": 86.3297,
        "meta_ra_of_asc_node": 322.4431,
        "meta_arg_of_pericenter": 180.4876,
        "meta_mean_anomaly": 190.8945,
        "meta_ephemeris_type": 0,
        "meta_classification_type": "U",
        "meta_norad_cat_id": 34896,
        "meta_element_set_no": 999,
        "meta_rev_at_epoch": 87758,
        "meta_bstar": 0.00089124778,
        "meta_mean_motion_dot": 4.968e-05,
        "meta_mean_motion_ddot": 0,
        "tle_line1": "1 34896U 97051MY  25356.19588469  .00004968  00000+0  89125-3 0  9997",
        "tle_line2": "2 34896  86.3297 322.4431 0025464 180.4876 190.8945 14.66361603877588"
      },
      "geometry": {
        "type": "Point",
        "coordinates": [
          -47.12102631243745,
          -67.73509656128748
        ]
      }
    },
    {
      "type": "Feature",
      "properties": {
        "norad_id": 34926,
        "name": "IRIDIUM 33 DEB",
        "group": "iridium-33-debris",
        "lat": -68.7112680372488,
        "lon": -6.674643278865871,
        "alt_km": 673.8909830204047,
        "timestamp": "2025-12-23T09:49:07.468269+00:00",
        "meta_object_name": "IRIDIUM 33 DEB",
        "meta_object_id": "1997-051NF",
        "meta_epoch": "2025-12-21T19:20:10.732992",
        "meta_mean_motion": 14.5478701,
        "meta_eccentricity": 0.00744409,
        "meta_inclination": 86.132,
        "meta_ra_of_asc_node": 4.0681,
        "meta_arg_of_pericenter": 261.3659,
        "meta_mean_anomaly": 276.799,
        "meta_ephemeris_type": 0,
        "meta_classification_type": "U",
        "meta_norad_cat_id": 34926,
        "meta_element_set_no": 999,
        "meta_rev_at_epoch": 86588,
        "meta_bstar": 0.0043404181,
        "meta_mean_motion_dot": 0.0001936,
        "meta_mean_motion_ddot": 0,
        "tle_line1": "1 34926U 97051NF  25355.80567978  .00019360  00000+0  43404-2 0  9991",
        "tle_line2": "2 34926  86.1320   4.0681 0074440 261.3659 276.7990 14.54787010865888"
      },
      "geometry": {
        "type": "Point",
        "coordinates": [
          -6.674643278865871,
          -68.7112680372488
        ]
      }
    },
    {
      "type": "Feature",
      "properties": {
        "norad_id": 34985,
        "name": "IRIDIUM 33 DEB",
        "group": "iridium-33-debris",
        "lat": -68.04730317145044,
        "lon": 43.26435159009909,
        "alt_km": 763.7504580510631,
        "timestamp": "2025-12-23T09:49:07.468279+00:00",
        "meta_object_name": "IRIDIUM 33 DEB",
        "meta_object_id": "1997-051NR",
        "meta_epoch": "2025-12-21T03:18:55.645056",
        "meta_mean_motion": 14.42041434,
        "meta_eccentricity": 0.00216435,
        "meta_inclination": 86.369,
        "meta_ra_of_asc_node": 53.2972,
        "meta_arg_of_pericenter": 191.5239,
        "meta_mean_anomaly": 198.031,
        "meta_ephemeris_type": 0,
        "meta_classification_type": "U",
        "meta_norad_cat_id": 34985,
        "meta_element_set_no": 999,
        "meta_rev_at_epoch": 87296,
        "meta_bstar": 0.00042163262,
        "meta_mean_motion_dot": 1.407e-05,
        "meta_mean_motion_ddot": 0,
        "tle_line1": "1 34985U 97051NR  25355.13814404  .00001407  00000+0  42163-3 0  9996",
        "tle_line2": "2 34985  86.3690  53.2972 0021643 191.5239 198.0310 14.42041434872968"
      },
      "geometry": {
        "type": "Point",
        "coordinates": [
          43.26435159009909,
          -68.04730317145044
        ]
      }
    },
    {
      "type": "Feature",
      "properties": {
        "norad_id": 35051,
        "name": "IRIDIUM 33 DEB",
        "group": "iridium-33-debris",
        "lat": 78.05479767128824,
        "lon": 21.90259609101479,
        "alt_km": 719.159189070454,
        "timestamp": "2025-12-23T09:49:07.468289+00:00",
        "meta_object_name": "IRIDIUM 33 DEB",
        "meta_object_id": "1997-051NX",
        "meta_epoch": "2025-12-22T18:31:37.744896",
        "meta_mean_motion": 14.47639956,
        "meta_eccentricity": 0.0010302,
        "meta_inclination": 86.324,
        "meta_ra_of_asc_node": 4.4893,
        "meta_arg_of_pericenter": 63.2582,
        "meta_mean_anomaly": 296.9674,
        "meta_ephemeris_type": 0,
        "meta_classification_type": "U",
        "meta_norad_cat_id": 35051,
        "meta_element_set_no": 999,
        "meta_rev_at_epoch": 87141,
        "meta_bstar": 0.00060447572,
        "meta_mean_motion_dot": 2.248e-05,
        "meta_mean_motion_ddot": 0,
        "tle_line1": "1 35051U 97051NX  25356.77196464  .00002248  00000+0  60448-3 0  9991",
        "tle_line2": "2 35051  86.3240   4.4893 0010302  63.2582 296.9674 14.47639956871417"
      },
      "geometry": {
        "type": "Point",
        "coordinates": [
          21.90259609101479,
          78.05479767128824
        ]
      }
    }
  ]
}